#cP2009  4  1  0  0  0.00000000      96 ORBIT IGS05 BHN ESOC                    
## 1525 259200.00000000   900.00000000 54922 0.0000000000000                    
+   48   G32G24G25G26G27G30G03G04G06G08G09G10G14G13G28G21G11                    
+        G22G20G18G16G19G23G02G31G17G12G15G29G07R04R06R07R10                    
+        R11R13R14R15R17R19R20R23R18R21R22R03R02R08  0  0  0                    
+          0  0  0  0  0  0  0  0  0  0  0  0  0  0  0  0  0                    
+          0  0  0  0  0  0  0  0  0  0  0  0  0  0  0  0  0                    
++         5  5  6  5  5  6  5  5  5  5  5  5  5  5  5  5  5                    
++         5  5  5  6  5  5  5  5  5  5  5  5  5  7  8  6  6                    
++         6  7  7  7  7  6  6  7  7  7  7  7  6  7  0  0  0                    
++         0  0  0  0  0  0  0  0  0  0  0  0  0  0  0  0  0                    
++         0  0  0  0  0  0  0  0  0  0  0  0  0  0  0  0  0                    
%c M  cc GPS ccc cccc cccc cccc cccc ccccc ccccc ccccc ccccc                    
%c cc cc ccc ccc cccc cccc cccc cccc ccccc ccccc ccccc ccccc                    
%f  0.0000000  0.000000000  0.00000000000  0.000000000000000                    
%f  0.0000000  0.000000000  0.00000000000  0.000000000000000                    
%i    0    0    0    0      0      0      0      0         0                    
%i    0    0    0    0      0      0      0      0         0                    
/* CCCCCCCCCCCCCCCCCCCCCCCCCCCCCCCCCCCCCCCCCCCCCCCCCCCCCCCCC                    
/* CCCCCCCCCCCCCCCCCCCCCCCCCCCCCCCCCCCCCCCCCCCCCCCCCCCCCCCCC                    
/* CCCCCCCCCCCCCCCCCCCCCCCCCCCCCCCCCCCCCCCCCCCCCCCCCCCCCCCCC                    
/* PCV:IGS05_1461 OL/AL:FES2004  NONE     YN ORB:CoN CLK:CoN                    
*  2009  4  1 22 30  0.00000000                                                 
PG32 -12846.474448  -8430.356277  22072.390273    280.004773                    
PG24  18974.822468   6247.206449 -17239.483000    177.943613                    
PG25 -18863.446389  -2324.258670 -18117.895830    335.360634                    
PG26  21275.220132   8216.068725 -14617.251700     54.536774                    
PG27  15084.296747  21472.086809  -3321.620282     37.260507                    
PG30  16966.382280 -11583.995173  16424.716657    136.351925                    
PG03 -13125.438510 -12323.008665 -19931.687239    373.670755                    
PG04    755.942960  20834.635505  16110.823821    -35.256841                    
PG06  -7531.946195 -14386.075767 -20832.440861     60.894482                    
PG08  -5988.456477  15589.405180 -20571.310427   -196.600654                    
PG09  20036.878945  12681.174269  11418.721267     48.530411                    
PG10   6013.896249  18057.225186 -18543.828823    -13.645483                    
PG14  10896.529517 -13979.337340  19861.257041   -132.179441                    
PG13 -25026.559941   5905.530390  -6761.775820    293.305535                    
PG28 -12379.182960  23167.990000  -2046.063652    -23.838571                    
PG21  13568.264163  -7930.318977 -21186.984325     21.451852                    
PG11 -22834.535214  -8242.238313  10959.471973      2.703221                    
PG22  11413.894396 -23942.122023    -45.299394    202.401248                    
PG20 -16653.186413   1460.290716  20500.623558     86.519032                    
PG18  16336.477723 -18140.149034  -9787.674212    -69.390911                    
PG16  -1210.966097 -21869.763689 -14794.028402     62.883630                    
PG19 -21941.441202  -8042.217205 -12781.000893     29.324112                    
PG23 -26320.200183   -154.132764   4482.663487    389.003247                    
PG02  12261.411672  23043.340876   5852.113902    153.912974                    
PG31  -3225.740778 -21617.315100  15203.771342    -56.514511                    
PG17 -12747.265531  14242.855096  18423.347781     52.500761                    
PG12  15609.114722   1386.296874  21504.781053   -299.353387                    
PG15  20412.207339   7999.002210 -15008.999823   -276.181047                    
PG29  25472.049893  -5669.887232  -4734.513970      5.010275                    
PG07 -15347.373845   4037.266530 -21332.770944     20.961222                    
PR04   2925.808497 -20783.223728  14404.404070     63.533865                    
PR06 -15302.623375  12203.564554  16241.797818   -169.272609                    
PR07 -10781.194228  23100.522688  -1207.053860    -89.106560                    
PR10   -631.346674  16022.031347 -19822.794896   -140.816016                    
PR11  11119.271347  22450.823831  -5055.860099    -92.666722                    
PR13  11767.395985  -1043.595568  22593.970441   -230.686288                    
PR14    588.983901 -16076.554676  19806.940265    -79.499013                    
PR15 -11308.395769 -22225.815068   5067.374731     92.158826                    
PR17  10912.601603 -10065.477914 -20760.618882   -261.304630                    
PR19 -23072.640016  -4017.958466 -10104.801327    -89.463179                    
PR20 -23969.351291   4343.899841   7692.086308    -65.018708                    
PR23  23320.107879   3857.253909   9547.935840   -200.100372                    
PR18  -8939.063730  -9902.775771 -21738.183710     -1.362566                    
PR21 -10704.185508  10169.246489  20770.820896   -143.391729                    
PR22   8613.834925   9968.251747  21856.135338   -201.683557                    
PR03  11690.030132 -22611.541230   1642.108485    -34.400512                    
PR02  15606.738706 -13403.048595 -15095.470792     20.531915                    
PR08   -973.293811  18644.693702 -17382.473375   -101.964381                    
*  2009  4  1 22 45  0.00000000                                                 
PG32 -11759.512009 -10591.927599  21760.020401    280.000693                    
PG24  19919.101519   7909.391081 -15384.053071    177.946704                    
PG25 -20165.974941  -3903.863684 -16376.536290    335.380383                    
PG26  19611.795754   8446.099824 -16694.249424     54.538309                    
PG27  14504.733087  21162.503642  -6137.547758     37.265051                    
PG30  16470.477175  -9591.492928  18099.910574    136.355240                    
PG03 -10952.228684 -12996.332363 -20779.194741    373.675514                    
PG04   -637.136678  19407.680770  17827.525630    -35.270287                    
PG06  -5132.578824 -14901.195964 -21189.305196     60.910687                    
PG08  -7432.061850  13670.623031 -21490.947560   -196.603037                    
PG09  20694.974188  13753.435026   8871.473331     48.531895                    
PG10   5081.309737  19845.642976 -16877.034009    -13.646534                    
PG14  13055.875840 -14130.755310  18378.795371   -132.174408                    
PG13 -25632.877357   5810.786831  -3923.957611    293.306562                    
PG28 -12448.258736  22651.067500  -4893.974231    -23.839306                    
PG21  15054.791284  -5966.563476 -20884.688173     21.450362                    
PG11 -23481.939516  -9263.346903   8593.215065      2.701862                    
PG22  11632.339695 -23647.104391  -2857.480832    202.400839                    
PG20 -15889.857978   -832.859983  21131.933210     86.518122                    
PG18  16091.913573 -16827.109360 -12220.701297    -69.387991                    
PG16   -417.121221 -23251.479267 -12550.676305     62.880786                    
PG19 -20371.205048  -8353.330060 -14960.272165     29.323305                    
PG23 -25685.084152   -447.445227   7237.858243    389.003727                    
PG02  11534.238915  22570.488306   8486.071407    153.912593                    
PG31  -1969.124972 -20293.229803  17157.820786    -56.515520                    
PG17 -14758.452118  14350.043803  16740.377202     52.502188                    
PG12  14728.831643   3688.651188  21862.588370   -299.349188                    
PG15  18634.713811   8471.337345 -16930.156672   -276.184952                    
PG29  25893.585959  -5462.348651  -1911.541405      5.013772                    
PG07 -16785.785770   2131.369108 -20518.427462     20.960729                    
PR04   3551.804178 -22295.121571  11789.330061     63.528848                    
PR06 -14304.612594  10289.126755  18322.138223   -169.275301                    
PR07 -10662.850715  23098.980714   1982.948912    -89.107045                    
PR10  -1988.678669  13874.123685 -21304.834960   -140.814938                    
PR11  10807.337037  21682.335520  -8136.410063    -92.667523                    
PR13  13321.761277   1210.478132  21705.585382   -230.686999                    
PR14   1942.498795 -13927.223165  21286.474062    -79.495874                    
PR15 -10990.388960 -21451.665006   8170.502189     92.161553                    
PR17  13364.544901 -10307.128359 -19153.604610   -261.305416                    
PR19 -21646.356474  -3968.799207 -12894.071197    -89.464053                    
PR20 -24713.168694   4552.993890   4593.443039    -65.018968                    
PR23  21960.324079   3798.090692  12380.640205   -200.095552                    
PR18  -6201.733914 -10048.575538 -22595.886963     -1.362780                    
PR21 -13161.460783  10414.613484  19167.923250   -143.393089                    
PR22   5875.915783  10121.500854  22689.334272   -201.685634                    
PR03  11555.987915 -22685.850658  -1572.822381    -34.400549                    
PR02  14594.483631 -11671.789975 -17373.217569     20.529130                    
PR08  -1793.126288  20476.892419 -15105.538233   -101.963883                    
EOF                                                                             
